$$SOE
2460154.500000000, A.D. 2023-Jul-29 00:00:00.0000, -7.769886640831101E+07, 7.482480180143493E+08, 3.917292002678341E+07,
2460161.500000000, A.D. 2023-Aug-05 00:00:00.0000, -8.543750260937436E+07, 7.475375211370664E+08, 4.163567758814740E+07,
2460168.500000000, A.D. 2023-Aug-12 00:00:00.0000, -9.316646548852549E+07, 7.467421575190729E+08, 4.409370892997903E+07,
2460175.500000000, A.D. 2023-Aug-19 00:00:00.0000, -1.008848910809251E+08, 7.458621056600809E+08, 4.654674040947282E+07,
2460182.500000000, A.D. 2023-Aug-26 00:00:00.0000, -1.085919182765536E+08, 7.448975537673891E+08, 4.899449956275052E+07,
2460189.500000000, A.D. 2023-Sep-02 00:00:00.0000, -1.162866889559088E+08, 7.438486997048628E+08, 5.143671514127791E+07,
2460196.500000000, A.D. 2023-Sep-09 00:00:00.0000, -1.239683481106584E+08, 7.427157508278143E+08, 5.387311713642025E+07,
2460203.500000000, A.D. 2023-Sep-16 00:00:00.0000, -1.316360437808462E+08, 7.414989236458180E+08, 5.630343677199689E+07,
2460210.500000000, A.D. 2023-Sep-23 00:00:00.0000, -1.392889263922905E+08, 7.401984436003404E+08, 5.872740645015231E+07,
2460217.500000000, A.D. 2023-Sep-30 00:00:00.0000, -1.469261478337815E+08, 7.388145461481330E+08, 6.114475977910596E+07,
2460224.500000000, A.D. 2023-Oct-07 00:00:00.0000, -1.545468626276603E+08, 7.373474786077765E+08, 6.355523185444188E+07,
2460231.500000000, A.D. 2023-Oct-14 00:00:00.0000, -1.621502301537058E+08, 7.357974994559505E+08, 6.595855942794037E+07,
2460238.500000000, A.D. 2023-Oct-21 00:00:00.0000, -1.697354146979207E+08, 7.341648766760832E+08, 6.835448079899445E+07,
2460245.500000000, A.D. 2023-Oct-28 00:00:00.0000, -1.773015847506214E+08, 7.324498874198689E+08, 7.074273574421686E+07,
2460252.500000000, A.D. 2023-Nov-04 00:00:00.0000, -1.848479128036376E+08, 7.306528182113862E+08, 7.312306553717819E+07,
2460259.500000000, A.D. 2023-Nov-11 00:00:00.0000, -1.923735754688900E+08, 7.287739650937908E+08, 7.549521299320045E+07,
2460266.500000000, A.D. 2023-Nov-18 00:00:00.0000, -1.998777536987925E+08, 7.268136336541028E+08, 7.785892251404271E+07,
2460273.500000000, A.D. 2023-Nov-25 00:00:00.0000, -2.073596330356790E+08, 7.247721389485066E+08, 8.021394012784097E+07,
2460280.500000000, A.D. 2023-Dec-02 00:00:00.0000, -2.148184038621658E+08, 7.226498053169069E+08, 8.256001352096868E+07,
2460287.500000000, A.D. 2023-Dec-09 00:00:00.0000, -2.222532615747490E+08, 7.204469660278593E+08, 8.489689204998609E+07,
2460294.500000000, A.D. 2023-Dec-16 00:00:00.0000, -2.296634063932070E+08, 7.181639627665732E+08, 8.722432670838937E+07,
2460301.500000000, A.D. 2023-Dec-23 00:00:00.0000, -2.370480424574423E+08, 7.158011456536613E+08, 8.954207007237029E+07,
2460308.500000000, A.D. 2023-Dec-30 00:00:00.0000, -2.444063775519740E+08, 7.133588748442308E+08, 9.184987643419054E+07,
2460315.500000000, A.D. 2024-Jan-06 00:00:00.0000, -2.517376252302479E+08, 7.108375213467387E+08, 9.414750209263691E+07,
2460322.500000000, A.D. 2024-Jan-13 00:00:00.0000, -2.590410061658217E+08, 7.082374652543406E+08, 9.643470536159432E+07,
2460329.500000000, A.D. 2024-Jan-20 00:00:00.0000, -2.663157475070790E+08, 7.055590944732393E+08, 9.871124643633470E+07,
2460336.500000000, A.D. 2024-Jan-27 00:00:00.0000, -2.735610822642652E+08, 7.028028046004684E+08, 1.009768873566691E+08,
2460343.500000000, A.D. 2024-Feb-03 00:00:00.0000, -2.807762491571255E+08, 6.999689990025206E+08, 1.032313920284779E+08,
2460350.500000000, A.D. 2024-Feb-10 00:00:00.0000, -2.879604926457658E+08, 6.970580888036306E+08, 1.054745262541577E+08,
2460357.500000000, A.D. 2024-Feb-17 00:00:00.0000, -2.951130630060730E+08, 6.940704927916211E+08, 1.077060577597290E+08,
2460364.500000000, A.D. 2024-Feb-24 00:00:00.0000, -3.022332164137976E+08, 6.910066372561338E+08, 1.099257562163777E+08,
2460371.500000000, A.D. 2024-Mar-02 00:00:00.0000, -3.093202150079673E+08, 6.878669557267764E+08, 1.121333932509849E+08,
2460378.500000000, A.D. 2024-Mar-09 00:00:00.0000, -3.163733267948326E+08, 6.846518885483713E+08, 1.143287424276965E+08,
2460385.500000000, A.D. 2024-Mar-16 00:00:00.0000, -3.233918249970634E+08, 6.813618824905931E+08, 1.165115791803559E+08,
2460392.500000000, A.D. 2024-Mar-23 00:00:00.0000, -3.303749869518546E+08, 6.779973915011528E+08, 1.186816807959109E+08,
2460399.500000000, A.D. 2024-Mar-30 00:00:00.0000, -3.373220947990972E+08, 6.745588785759811E+08, 1.208388266521941E+08,
2460406.500000000, A.D. 2024-Apr-06 00:00:00.0000, -3.442324377033238E+08, 6.710468153787727E+08, 1.229827984113409E+08,
2460413.500000000, A.D. 2024-Apr-13 00:00:00.0000, -3.511053120582613E+08, 6.674616804459908E+08, 1.251133799114208E+08,
2460420.500000000, A.D. 2024-Apr-20 00:00:00.0000, -3.579400206263995E+08, 6.638039586540637E+08, 1.272303570624128E+08,
2460427.500000000, A.D. 2024-Apr-27 00:00:00.0000, -3.647358721306422E+08, 6.600741413876468E+08, 1.293335178398657E+08,
2460434.500000000, A.D. 2024-May-04 00:00:00.0000, -3.714921812100566E+08, 6.562727267057014E+08, 1.314226523107621E+08,
2460441.500000000, A.D. 2024-May-11 00:00:00.0000, -3.782082685013601E+08, 6.524002194037590E+08, 1.334975526614994E+08,
2460448.500000000, A.D. 2024-May-18 00:00:00.0000, -3.848834607641824E+08, 6.484571309942675E+08, 1.355580132223758E+08,
2460455.500000000, A.D. 2024-May-25 00:00:00.0000, -3.915170910254230E+08, 6.444439795982572E+08, 1.376038304859286E+08,
2460462.500000000, A.D. 2024-Jun-01 00:00:00.0000, -3.981084986828741E+08, 6.403612896912721E+08, 1.396348031091667E+08,
2460469.500000000, A.D. 2024-Jun-08 00:00:00.0000, -4.046570293217629E+08, 6.362095916809771E+08, 1.416507318754895E+08,
2460476.500000000, A.D. 2024-Jun-15 00:00:00.0000, -4.111620338447221E+08, 6.319894218618405E+08, 1.436514196244665E+08,
2460483.500000000, A.D. 2024-Jun-22 00:00:00.0000, -4.176228679204687E+08, 6.277013239224259E+08, 1.456366713380235E+08,
2460490.500000000, A.D. 2024-Jun-29 00:00:00.0000, -4.240388938727095E+08, 6.233458501848896E+08, 1.476062944291121E+08,
2460497.500000000, A.D. 2024-Jul-06 00:00:00.0000, -4.304094823638992E+08, 6.189235601055431E+08, 1.495600987884303E+08,
2460504.500000000, A.D. 2024-Jul-13 00:00:00.0000, -4.367340119245678E+08, 6.144350188602662E+08, 1.514978966412515E+08,
2460511.500000000, A.D. 2024-Jul-20 00:00:00.0000, -4.430118683141035E+08, 6.098807971635053E+08, 1.534195024904716E+08,
2460518.500000000, A.D. 2024-Jul-27 00:00:00.0000, -4.492424443690853E+08, 6.052614713615284E+08, 1.553247331276620E+08,
2460525.500000000, A.D. 2024-Aug-03 00:00:00.0000, -4.554251400662954E+08, 6.005776234250869E+08, 1.572134076564017E+08,
2460532.500000000, A.D. 2024-Aug-10 00:00:00.0000, -4.615593626347595E+08, 5.958298408372771E+08, 1.590853475122089E+08,
2460539.500000000, A.D. 2024-Aug-17 00:00:00.0000, -4.676445266695722E+08, 5.910187163987346E+08, 1.609403764763683E+08,
2460546.500000000, A.D. 2024-Aug-24 00:00:00.0000, -4.736800542197163E+08, 5.861448479283998E+08, 1.627783206790820E+08,
2460553.500000000, A.D. 2024-Aug-31 00:00:00.0000, -4.796653747342274E+08, 5.812088377988439E+08, 1.645990085760809E+08,
2460560.500000000, A.D. 2024-Sep-07 00:00:00.0000, -4.855999245011727E+08, 5.762112924329017E+08, 1.664022708752318E+08,
2460567.500000000, A.D. 2024-Sep-14 00:00:00.0000, -4.914831454942145E+08, 5.711528227577944E+08, 1.681879404864638E+08,
2460574.500000000, A.D. 2024-Sep-21 00:00:00.0000, -4.973144856556994E+08, 5.660340460296800E+08, 1.699558527146395E+08,
2460581.500000000, A.D. 2024-Sep-28 00:00:00.0000, -5.030934011036519E+08, 5.608555858013201E+08, 1.717058454761510E+08,
2460588.500000000, A.D. 2024-Oct-05 00:00:00.0000, -5.088193565927064E+08, 5.556180700344601E+08, 1.734377592025352E+08,
2460595.500000000, A.D. 2024-Oct-12 00:00:00.0000, -5.144918245897064E+08, 5.503221303369339E+08, 1.751514367075974E+08,
2460602.500000000, A.D. 2024-Oct-19 00:00:00.0000, -5.201102847150967E+08, 5.449684020539408E+08, 1.768467231565192E+08,
2460609.500000000, A.D. 2024-Oct-26 00:00:00.0000, -5.256742235824549E+08, 5.395575244124106E+08, 1.785234660744363E+08,
2460616.500000000, A.D. 2024-Nov-02 00:00:00.0000, -5.311831347786863E+08, 5.340901405703222E+08, 1.801815153587555E+08,
2460623.500000000, A.D. 2024-Nov-09 00:00:00.0000, -5.366365188881368E+08, 5.285668975919333E+08, 1.818207232880618E+08,
2460630.500000000, A.D. 2024-Nov-16 00:00:00.0000, -5.420338835345860E+08, 5.229884463494729E+08, 1.834409445253123E+08,
2460637.500000000, A.D. 2024-Nov-23 00:00:00.0000, -5.473747433940538E+08, 5.173554413016788E+08, 1.850420361069975E+08,
2460644.500000000, A.D. 2024-Nov-30 00:00:00.0000, -5.526586199700094E+08, 5.116685401067889E+08, 1.866238573957665E+08,
2460651.500000000, A.D. 2024-Dec-07 00:00:00.0000, -5.578850407114601E+08, 5.059284034907969E+08, 1.881862699925157E+08,
2460658.500000000, A.D. 2024-Dec-14 00:00:00.0000, -5.630535381625894E+08, 5.001356965951346E+08, 1.897291377712860E+08,
2460665.500000000, A.D. 2024-Dec-21 00:00:00.0000, -5.681636514625970E+08, 4.942910905633249E+08, 1.912523271484661E+08,
2460672.500000000, A.D. 2024-Dec-28 00:00:00.0000, -5.732149282230976E+08, 4.883952613995251E+08, 1.927557071630773E+08,
2460679.500000000, A.D. 2025-Jan-04 00:00:00.0000, -5.782069241855992E+08, 4.824488884750031E+08, 1.942391493242146E+08,
2460686.500000000, A.D. 2025-Jan-11 00:00:00.0000, -5.831392024804177E+08, 4.764526543423406E+08, 1.957025275285951E+08,
2460693.500000000, A.D. 2025-Jan-18 00:00:00.0000, -5.880113334040155E+08, 4.704072449387505E+08, 1.971457180575712E+08,
2460700.500000000, A.D. 2025-Jan-25 00:00:00.0000, -5.928228944711437E+08, 4.643133497041104E+08, 1.985685995927886E+08,
2460707.500000000, A.D. 2025-Feb-01 00:00:00.0000, -5.975734705521001E+08, 4.581716615836417E+08, 1.999710532309068E+08,
2460714.500000000, A.D. 2025-Feb-08 00:00:00.0000, -6.022626540365186E+08, 4.519828769349166E+08, 2.013529624938622E+08,
2460721.500000000, A.D. 2025-Feb-15 00:00:00.0000, -6.068900449947200E+08, 4.457476953191847E+08, 2.027142133305702E+08,
$$EOE